{"type": "FeatureCollection", "features": [ {"type": "Feature", "properties": {"norad_id": 44476, "name": "INTELSAT 39 (IS-39)", "group": "intelsat", "lat": 0.01331527376501581, "lon": 143.72162708240907, "alt_km": 35781.01117558479, "timestamp": "2025-12-18T23:35:48.715358+00:00", "meta": {"OBJECT_NAME": "INTELSAT 39 (IS-39)", "OBJECT_ID": "2019-049B", "EPOCH": "2025-12-18T12:12:55.404576", "MEAN_MOTION": 1.00271097, "ECCENTRICITY": 0.00012685, "INCLINATION": 0.0008, "RA_OF_ASC_NODE": 355.5161, "ARG_OF_PERICENTER": 136.8376, "MEAN_ANOMALY": 200.1878, "EPHEMERIS_TYPE": 0, "CLASSIFICATION_TYPE": "U", "NORAD_CAT_ID": 44476, "ELEMENT_SET_NO": 999, "REV_AT_EPOCH": 2331, "BSTAR": 0, "MEAN_MOTION_DOT": 5.9e-07, "MEAN_MOTION_DDOT": 0}, "tle": {"line1": "1 44476U 19049B   25352.50897459  .00000059  00000+0  00000+0 0  9994", "line2": "2 44476   0.0008 355.5161 0001268 136.8376 200.1878  1.00271097 23314"}}, "geometry": {"type": "Point", "coordinates": [143.72162708240907, 0.01331527376501581]}}, {"type": "Feature", "properties": {"norad_id": 46114, "name": "GALAXY 30 (G-30)", "group": "intelsat", "lat": -0.017328883805199362, "lon": -43.193507570701634, "alt_km": 35779.855822450794, "timestamp": "2025-12-18T23:35:48.715370+00:00", "meta": {"OBJECT_NAME": "GALAXY 30 (G-30)", "OBJECT_ID": "2020-056C", "EPOCH": "2025-12-18T14:24:42.759360", "MEAN_MOTION": 1.00272839, "ECCENTRICITY": 0.00020166, "INCLINATION": 0.0022, "RA_OF_ASC_NODE": 357.0524, "ARG_OF_PERICENTER": 273.5592, "MEAN_ANOMALY": 268.0359, "EPHEMERIS_TYPE": 0, "CLASSIFICATION_TYPE": "U", "NORAD_CAT_ID": 46114, "ELEMENT_SET_NO": 999, "REV_AT_EPOCH": 1948, "BSTAR": 0, "MEAN_MOTION_DOT": 6.2e-07, "MEAN_MOTION_DDOT": 0}, "tle": {"line1": "1 46114U 20056C   25352.60049490  .00000062  00000+0  00000+0 0  9994", "line2": "2 46114   0.0022 357.0524 0002016 273.5592 268.0359  1.00272839 19487"}}, "geometry": {"type": "Point", "coordinates": [-43.193507570701634, -0.017328883805199362]}}, {"type": "Feature", "properties": {"norad_id": 54026, "name": "GALAXY 33 (G-33)", "group": "intelsat", "lat": -0.029725964258759653, "lon": -51.20280295504294, "alt_km": 35781.49038266448, "timestamp": "2025-12-18T23:35:48.715382+00:00", "meta": {"OBJECT_NAME": "GALAXY 33 (G-33)", "OBJECT_ID": "2022-128A", "EPOCH": "2025-12-18T14:22:27.973632", "MEAN_MOTION": 1.00270688, "ECCENTRICITY": 0.00015507, "INCLINATION": 0.0115, "RA_OF_ASC_NODE": 21.6151, "ARG_OF_PERICENTER": 245.027, "MEAN_ANOMALY": 263.4406, "EPHEMERIS_TYPE": 0, "CLASSIFICATION_TYPE": "U", "NORAD_CAT_ID": 54026, "ELEMENT_SET_NO": 999, "REV_AT_EPOCH": 1193, "BSTAR": 0, "MEAN_MOTION_DOT": 1.04e-06, "MEAN_MOTION_DDOT": 0}, "tle": {"line1": "1 54026U 22128A   25352.59893488  .00000104  00000+0  00000+0 0  9996", "line2": "2 54026   0.0115  21.6151 0001550 245.0270 263.4406  1.00270688 11934"}}, "geometry": {"type": "Point", "coordinates": [-51.20280295504294, -0.029725964258759653]}}, {"type": "Feature", "properties": {"norad_id": 54027, "name": "GALAXY 34 (G-34)", "group": "intelsat", "lat": -0.029722038237767524, "lon": -47.12178050349248, "alt_km": 35781.80192420923, "timestamp": "2025-12-18T23:35:48.715394+00:00", "meta": {"OBJECT_NAME": "GALAXY 34 (G-34)", "OBJECT_ID": "2022-128B", "EPOCH": "2025-12-18T02:27:22.645152", "MEAN_MOTION": 1.00271871, "ECCENTRICITY": 0.00015543, "INCLINATION": 0.0227, "RA_OF_ASC_NODE": 349.9987, "ARG_OF_PERICENTER": 272.3331, "MEAN_ANOMALY": 92.5663, "EPHEMERIS_TYPE": 0, "CLASSIFICATION_TYPE": "U", "NORAD_CAT_ID": 54027, "ELEMENT_SET_NO": 999, "REV_AT_EPOCH": 1209, "BSTAR": 0, "MEAN_MOTION_DOT": 0, "MEAN_MOTION_DDOT": 0}, "tle": {"line1": "1 54027U 22128B   25352.10234543  .00000000  00000+0  00000+0 0  9990", "line2": "2 54027   0.0227 349.9987 0001554 272.3331  92.5663  1.00271871 12096"}}, "geometry": {"type": "Point", "coordinates": [-47.12178050349248, -0.029722038237767524]}}, {"type": "Feature", "properties": {"norad_id": 54243, "name": "GALAXY 31 (G-31)", "group": "intelsat", "lat": -0.028033133795306153, "lon": -39.192039903876456, "alt_km": 35780.780042235325, "timestamp": "2025-12-18T23:35:48.715406+00:00", "meta": {"OBJECT_NAME": "GALAXY 31 (G-31)", "OBJECT_ID": "2022-153A", "EPOCH": "2025-12-17T23:01:24.835872", "MEAN_MOTION": 1.00272955, "ECCENTRICITY": 0.00014763, "INCLINATION": 0.0201, "RA_OF_ASC_NODE": 61.1957, "ARG_OF_PERICENTER": 221.7333, "MEAN_ANOMALY": 28.2661, "EPHEMERIS_TYPE": 0, "CLASSIFICATION_TYPE": "U", "NORAD_CAT_ID": 54243, "ELEMENT_SET_NO": 999, "REV_AT_EPOCH": 531, "BSTAR": 0, "MEAN_MOTION_DOT": 3.8e-07, "MEAN_MOTION_DDOT": 0}, "tle": {"line1": "1 54243U 22153A   25351.95931523  .00000038  00000+0  00000+0 0  9993", "line2": "2 54243   0.0201  61.1957 0001476 221.7333  28.2661  1.00272955  5316"}}, "geometry": {"type": "Point", "coordinates": [-39.192039903876456, -0.028033133795306153]}}, {"type": "Feature", "properties": {"norad_id": 54244, "name": "GALAXY 32 (G-32)", "group": "intelsat", "lat": 0.00460560815153019, "lon": -9.206870643378346, "alt_km": 35777.04597190965, "timestamp": "2025-12-18T23:35:48.715418+00:00", "meta": {"OBJECT_NAME": "GALAXY 32 (G-32)", "OBJECT_ID": "2022-153B", "EPOCH": "2025-12-17T04:19:59.261664", "MEAN_MOTION": 1.00271531, "ECCENTRICITY": 0.000259, "INCLINATION": 0.0104, "RA_OF_ASC_NODE": 339.7375, "ARG_OF_PERICENTER": 338.8221, "MEAN_ANOMALY": 101.4983, "EPHEMERIS_TYPE": 0, "CLASSIFICATION_TYPE": "U", "NORAD_CAT_ID": 54244, "ELEMENT_SET_NO": 999, "REV_AT_EPOCH": 1131, "BSTAR": 0, "MEAN_MOTION_DOT": -1.5e-06, "MEAN_MOTION_DDOT": 0}, "tle": {"line1": "1 54244U 22153B   25351.18054701 -.00000150  00000+0  00000+0 0  9999", "line2": "2 54244   0.0104 339.7375 0002590 338.8221 101.4983  1.00271531 11318"}}, "geometry": {"type": "Point", "coordinates": [-9.206870643378346, 0.00460560815153019]}}, {"type": "Feature", "properties": {"norad_id": 54741, "name": "GALAXY 35 (G-35)", "group": "intelsat", "lat": -0.01737921834548863, "lon": -11.306312600304643, "alt_km": 35784.24718207982, "timestamp": "2025-12-18T23:35:48.715431+00:00", "meta": {"OBJECT_NAME": "GALAXY 35 (G-35)", "OBJECT_ID": "2022-170A", "EPOCH": "2025-12-18T14:33:26.923104", "MEAN_MOTION": 1.00270909, "ECCENTRICITY": 0.00021438, "INCLINATION": 0.0202, "RA_OF_ASC_NODE": 29.8843, "ARG_OF_PERICENTER": 242.2502, "MEAN_ANOMALY": 300.5856, "EPHEMERIS_TYPE": 0, "CLASSIFICATION_TYPE": "U", "NORAD_CAT_ID": 54741, "ELEMENT_SET_NO": 999, "REV_AT_EPOCH": 1108, "BSTAR": 0, "MEAN_MOTION_DOT": 0, "MEAN_MOTION_DDOT": 0}, "tle": {"line1": "1 54741U 22170A   25352.60656161  .00000000  00000+0  00000+0 0  9999", "line2": "2 54741   0.0202  29.8843 0002143 242.2502 300.5856  1.00270909 11083"}}, "geometry": {"type": "Point", "coordinates": [-11.306312600304643, -0.01737921834548863]}}, {"type": "Feature", "properties": {"norad_id": 54742, "name": "GALAXY 36 (G-36)", "group": "intelsat", "lat": 0.01252001804429532, "lon": -7.2163572703722245, "alt_km": 35784.966081519386, "timestamp": "2025-12-18T23:35:48.715443+00:00", "meta": {"OBJECT_NAME": "GALAXY 36 (G-36)", "OBJECT_ID": "2022-170B", "EPOCH": "2025-12-17T14:36:52.642368", "MEAN_MOTION": 1.0027201, "ECCENTRICITY": 2.709e-05, "INCLINATION": 0.0136, "RA_OF_ASC_NODE": 286.7849, "ARG_OF_PERICENTER": 61.0617, "MEAN_ANOMALY": 228.8591, "EPHEMERIS_TYPE": 0, "CLASSIFICATION_TYPE": "U", "NORAD_CAT_ID": 54742, "ELEMENT_SET_NO": 999, "REV_AT_EPOCH": 1095, "BSTAR": 0, "MEAN_MOTION_DOT": -1.6e-06, "MEAN_MOTION_DDOT": 0}, "tle": {"line1": "1 54742U 22170B   25351.60894262 -.00000160  00000+0  00000+0 0  9993", "line2": "2 54742   0.0136 286.7849 0000270  61.0617 228.8591  1.00272010 10951"}}, "geometry": {"type": "Point", "coordinates": [-7.2163572703722245, 0.01252001804429532]}}, {"type": "Feature", "properties": {"norad_id": 57493, "name": "GALAXY 37 (G-37)", "group": "intelsat", "lat": -0.011247079914120044, "lon": -45.19432043500683, "alt_km": 35779.36411848443, "timestamp": "2025-12-18T23:35:48.715455+00:00", "meta": {"OBJECT_NAME": "GALAXY 37 (G-37)", "OBJECT_ID": "2023-112A", "EPOCH": "2025-12-17T22:59:40.004160", "MEAN_MOTION": 1.00272187, "ECCENTRICITY": 0.00020138, "INCLINATION": 0.0114, "RA_OF_ASC_NODE": 322.1916, "ARG_OF_PERICENTER": 312.6639, "MEAN_ANOMALY": 29.8977, "EPHEMERIS_TYPE": 0, "CLASSIFICATION_TYPE": "U", "NORAD_CAT_ID": 57493, "ELEMENT_SET_NO": 999, "REV_AT_EPOCH": 872, "BSTAR": 0, "MEAN_MOTION_DOT": 7.3e-07, "MEAN_MOTION_DDOT": 0}, "tle": {"line1": "1 57493U 23112A   25351.95810190  .00000073  00000+0  00000+0 0  9994", "line2": "2 57493   0.0114 322.1916 0002013 312.6639  29.8977  1.00272187  8723"}}, "geometry": {"type": "Point", "coordinates": [-45.19432043500683, -0.011247079914120044]}}]}